STARLINK - 2019-029C               
1 44237U 19029C   19146.90693520  .00001784  00000-0  52282-4 0  9999
2 44237  52.9972 162.0078 0000940 192.5252 279.5960 15.41010777   550